NORAD_CAT_ID,OBJECT_NAME,OBJECT_TYPE,EPOCH,MEAN_MOTION,ECCENTRICITY,INCLINATION,RA_OF_ASC_NODE,ARG_OF_PERICENTER,MEAN_ANOMALY,BSTAR,MEAN_MOTION_DOT,MEAN_MOTION_DDOT,TLE_LINE0,TLE_LINE1,TLE_LINE2,SEMIMAJOR_AXIS,PERIOD,APOGEE,PERIGEE,DECAYED
53404.0,STARLINK-4509,PAYLOAD,2023-04-28 07:49:48,15.08846783,0.0001498,53.2154,131.4289,100.8523,259.2637,0.0001539,2.163e-05,0.0,0 STARLINK-4509,1 53404U 22097S   23118.32625262  .00002163  00000-0  15390-3 0  9992,2 53404  53.2154 131.4289 0001498 100.8523 259.2637 15.08846783 40689,6917.86,95.437,540.761,538.688,0.0
53404.0,STARLINK-4509,PAYLOAD,2023-04-28 17:22:07,15.08837444,0.000136,53.2155,129.645,104.2882,255.8261,-2.4937e-05,-6.85e-06,0.0,0 STARLINK-4509,1 53404U 22097S   23118.72369566 -.00000685  00000-0 -24937-4 0  9995,2 53404  53.2155 129.6450 0001360 104.2882 255.8261 15.08837444 40255,6917.888,95.438,540.694,538.812,0.0
53404.0,STARLINK-4509,PAYLOAD,2023-04-29 07:40:35,15.08839078,0.0001356,53.2154,126.9688,101.6437,258.4708,-2.9174e-05,-7.52e-06,0.0,0 STARLINK-4509,1 53404U 22097S   23119.31985464 -.00000752  00000-0 -29174-4 0  9995,2 53404  53.2154 126.9688 0001356 101.6437 258.4708 15.08839078 40833,6917.883,95.438,540.686,538.81,0.0
53404.0,STARLINK-4509,PAYLOAD,2023-04-30 12:17:32,15.0883951,0.0001256,53.2158,121.6163,98.909,261.2044,5.5484e-05,5.95e-06,0.0,0 STARLINK-4509,1 53404U 22097S   23120.51217669  .00000595  00000-0  55484-4 0  9990,2 53404  53.2158 121.6163 0001256  98.9090 261.2044 15.08839510 40521,6917.882,95.438,540.616,538.878,0.0
53404.0,STARLINK-4509,PAYLOAD,2023-05-01 12:08:19,15.08841271,0.0001187,53.2161,117.1548,96.5064,263.6063,0.00012493,1.701e-05,0.0,0 STARLINK-4509,1 53404U 22097S   23121.50577897  .00001701  00000-0  12493-3 0  9994,2 53404  53.2161 117.1548 0001187  96.5064 263.6063 15.08841271 41165,6917.877,95.437,540.563,538.92,0.0
53404.0,STARLINK-4509,PAYLOAD,2023-05-02 07:12:56,15.08843425,0.0001332,53.217,113.586,90.8651,269.2494,0.00012407,1.687e-05,0.0,0 STARLINK-4509,1 53404U 22097S   23122.30065964  .00001687  00000-0  12407-3 0  9998,2 53404  53.2170 113.5860 0001332  90.8651 269.2494 15.08843425 40794,6917.87,95.437,540.656,538.813,0.0
53404.0,STARLINK-4509,PAYLOAD,2023-05-02 08:48:20,15.08844713,0.0001311,53.217,113.2887,90.3499,269.7643,0.00013138,1.804e-05,0.0,0 STARLINK-4509,1 53404U 22097S   23122.36689858  .00001804  00000-0  13138-3 0  9991,2 53404  53.2170 113.2887 0001311  90.3499 269.7643 15.08844713 41290,6917.866,95.437,540.638,538.824,0.0
53404.0,STARLINK-4509,PAYLOAD,2023-05-02 16:45:16,15.08840477,0.0001395,53.2171,111.8026,84.2746,275.8406,7.7401e-05,9.44e-06,0.0,0 STARLINK-4509,1 53404U 22097S   23122.69810288  .00000944  00000-0  77401-4 0  9998,2 53404  53.2171 111.8026 0001395  84.2746 275.8406 15.08840477 41343,6917.879,95.438,540.709,538.779,0.0
53404.0,STARLINK-4509,PAYLOAD,2023-05-03 05:28:21,15.08841747,0.0001336,53.2166,109.4232,89.8347,270.2798,7.7657e-05,9.48e-06,0.0,0 STARLINK-4509,1 53404U 22097S   23123.22802191  .00000948  00000-0  77657-4 0  9999,2 53404  53.2166 109.4232 0001336  89.8347 270.2798 15.08841747 40930,6917.875,95.437,540.664,538.816,0.0
53404.0,STARLINK-4509,PAYLOAD,2023-05-03 08:39:07,15.08842791,0.0001326,53.2169,108.8291,86.8887,273.2257,7.92e-05,9.73e-06,0.0,0 STARLINK-4509,1 53404U 22097S   23123.36050121  .00000973  00000-0  79200-4 0  9996,2 53404  53.2169 108.8291 0001326  86.8887 273.2257 15.08842791 41446,6917.872,95.437,540.654,538.82,0.0
53404.0,STARLINK-4509,PAYLOAD,2023-05-04 10:05:16,15.0884931,0.0001329,53.2169,104.0709,89.3578,270.7566,0.00011796,1.59e-05,0.0,0 STARLINK-4509,1 53404U 22097S   23124.42033424  .00001590  00000-0  11796-3 0  9992,2 53404  53.2169 104.0709 0001329  89.3578 270.7566 15.08849310 41119,6917.852,95.437,540.636,538.798,0.0
53404.0,STARLINK-4509,PAYLOAD,2023-05-05 08:20:41,15.08842539,0.0001372,53.2174,99.9083,96.2898,263.8251,7.1785e-05,8.55e-06,0.0,0 STARLINK-4509,1 53404U 22097S   23125.34769903  .00000855  00000-0  71785-4 0  9990,2 53404  53.2174  99.9083 0001372  96.2898 263.8251 15.08842539 41257,6917.873,95.437,540.687,538.788,0.0
53404.0,STARLINK-4509,PAYLOAD,2023-05-05 22:39:09,15.08837637,0.0001332,53.2176,97.2317,92.0194,268.0951,-1.559e-05,-5.36e-06,0.0,0 STARLINK-4509,1 53404U 22097S   23125.94386559 -.00000536  00000-0 -15590-4 0  9998,2 53404  53.2176  97.2317 0001332  92.0194 268.0951 15.08837637 41346,6917.888,95.438,540.674,538.831,0.0
53404.0,STARLINK-4509,PAYLOAD,2023-05-06 08:11:28,15.08845412,0.000118,53.2168,95.447,90.7683,269.3445,5.9782e-05,6.64e-06,0.0,0 STARLINK-4509,1 53404U 22097S   23126.34129972  .00000664  00000-0  59782-4 0  9998,2 53404  53.2168  95.4470 0001180  90.7683 269.3445 15.08845412 41898,6917.864,95.437,540.545,538.913,0.0
53404.0,STARLINK-4509,PAYLOAD,2023-05-07 04:51:28,15.08846259,0.0001138,53.2165,91.5819,97.229,262.8832,8.752e-05,1.106e-05,0.0,0 STARLINK-4509,1 53404U 22097S   23127.20241857  .00001106  00000-0  87520-4 0  9994,2 53404  53.2165  91.5819 0001138  97.2290 262.8832 15.08846259 41537,6917.861,95.437,540.514,538.939,0.0
53404.0,STARLINK-4509,PAYLOAD,2023-05-07 06:26:52,15.08846347,0.0001152,53.2163,91.2843,97.7936,262.3187,9.8535e-05,1.281e-05,0.0,0 STARLINK-4509,1 53404U 22097S   23127.26865809  .00001281  00000-0  98535-4 0  9991,2 53404  53.2163  91.2843 0001152  97.7936 262.3187 15.08846347 42039,6917.861,95.437,540.523,538.929,0.0
53404.0,STARLINK-4509,PAYLOAD,2023-05-08 04:42:17,15.08831849,0.0001166,53.2168,87.1215,94.6156,265.4969,-6.7845e-06,-3.96e-06,0.0,0 STARLINK-4509,1 53404U 22097S   23128.19603346 -.00000396  00000-0 -67845-5 0  9999,2 53404  53.2168  87.1215 0001166  94.6156 265.4969 15.08831849 41689,6917.905,95.438,540.577,538.964,0.0
53404.0,STARLINK-4509,PAYLOAD,2023-05-08 06:17:40,15.08833827,0.0001175,53.2168,86.8241,94.8693,265.2434,2.2197e-05,6.5e-07,0.0,0 STARLINK-4509,1 53404U 22097S   23128.26227149  .00000065  00000-0  22197-4 0  9991,2 53404  53.2168  86.8241 0001175  94.8693 265.2434 15.08833827 42181,6917.899,95.438,540.577,538.951,0.0
53404.0,STARLINK-4509,PAYLOAD,2023-05-09 04:33:03,15.08850837,0.0001252,53.2173,82.6604,89.6241,270.4894,0.0001379,1.908e-05,0.0,0 STARLINK-4509,1 53404U 22097S   23129.18961846  .00001908  00000-0  13790-3 0  9997,2 53404  53.2173  82.6604 0001252  89.6241 270.4894 15.08850837 41830,6917.847,95.437,540.578,538.846,0.0
53404.0,STARLINK-4509,PAYLOAD,2023-05-10 02:48:28,15.08833489,0.0001343,53.2183,78.4977,88.276,271.8386,0.00010003,1.304e-05,0.0,0 STARLINK-4509,1 53404U 22097S   23130.11699342  .00001304  00000-0  10003-3 0  9995,2 53404  53.2183  78.4977 0001343  88.2760 271.8386 15.08833489 42464,6917.9,95.438,540.694,538.836,0.0
53404.0,STARLINK-4509,PAYLOAD,2023-05-11 02:39:14,15.08849781,0.0001363,53.2184,74.0375,98.5427,261.572,-4.818e-06,-3.65e-06,0.0,0 STARLINK-4509,1 53404U 22097S   23131.11058784 -.00000365  00000-0 -48180-5 0  9992,2 53404  53.2184  74.0375 0001363  98.5427 261.5720 15.08849781 42612,6917.85,95.437,540.658,538.773,0.0
53404.0,STARLINK-4509,PAYLOAD,2023-05-12 02:30:02,15.08841102,0.0001276,53.2181,69.5768,92.4253,267.6886,8.5713e-05,1.077e-05,0.0,0 STARLINK-4509,1 53404U 22097S   23132.10419152  .00001077  00000-0  85713-4 0  9993,2 53404  53.2181  69.5768 0001276  92.4253 267.6886 15.08841102 42278,6917.877,95.437,540.625,538.859,0.0
53404.0,STARLINK-4509,PAYLOAD,2023-05-13 02:20:48,15.08848136,0.0001167,53.2181,65.1203,93.5297,266.5828,9.2654e-05,1.187e-05,0.0,0 STARLINK-4509,1 53404U 22097S   23133.09778814  .00001187  00000-0  92654-4 0  9999,2 53404  53.2181  65.1203 0001167  93.5297 266.5828 15.08848136 42912,6917.856,95.437,540.528,538.913,0.0
53404.0,STARLINK-4509,PAYLOAD,2023-05-14 02:11:36,15.08837156,0.0001186,53.2187,60.6603,113.8544,246.2572,1.0062e-05,-1.28e-06,0.0,0 STARLINK-4509,1 53404U 22097S   23134.09139811 -.00000128  00000-0  10062-4 0  9996,2 53404  53.2187  60.6603 0001186 113.8544 246.2572 15.08837156 42577,6917.889,95.438,540.575,538.934,0.0
53404.0,STARLINK-4509,PAYLOAD,2023-05-15 11:34:42,15.08847176,9.08e-05,53.2184,54.4134,94.5448,265.5648,3.6195e-05,2.88e-06,0.0,0 STARLINK-4509,1 53404U 22097S   23135.48243136  .00000288  00000-0  36195-4 0  9997,2 53404  53.2184  54.4134 0000908  94.5448 265.5648 15.08847176 42787,6917.858,95.437,540.352,539.095,0.0
53404.0,STARLINK-4509,PAYLOAD,2023-05-16 01:53:11,15.08835864,0.000107,53.2196,51.739,102.7015,257.4096,4.478e-05,4.25e-06,0.0,0 STARLINK-4509,1 53404U 22097S   23136.07860105  .00000425  00000-0  44780-4 0  9996,2 53404  53.2196  51.7390 0001070 102.7015 257.4096 15.08835864 42875,6917.893,95.438,540.498,539.018,0.0
53404.0,STARLINK-4509,PAYLOAD,2023-05-16 20:57:48,15.08843092,0.0001001,53.2185,48.1685,94.1744,265.9363,3.3255e-05,2.42e-06,0.0,0 STARLINK-4509,1 53404U 22097S   23136.87347750  .00000242  00000-0  33255-4 0  9992,2 53404  53.2185  48.1685 0001001  94.1744 265.9363 15.08843092 43488,6917.871,95.437,540.428,539.043,0.0
53404.0,STARLINK-4509,PAYLOAD,2023-05-17 01:43:57,15.08848273,9.88e-05,53.2186,47.2769,88.096,272.0145,5.9535e-05,6.6e-06,0.0,0 STARLINK-4509,1 53404U 22097S   23137.07219284  .00000660  00000-0  59535-4 0  9998,2 53404  53.2186  47.2769 0000988  88.0960 272.0145 15.08848273 43020,6917.855,95.437,540.404,539.037,0.0
53404.0,STARLINK-4509,PAYLOAD,2023-05-17 22:23:59,15.08828412,0.00011,53.2191,43.4145,49.4532,310.6556,-6.2472e-06,-3.87e-06,0.0,0 STARLINK-4509,1 53404U 22097S   23137.93332832 -.00000387  00000-0 -62472-5 0  9991,2 53404  53.2191  43.4145 0001100  49.4532 310.6556 15.08828412 43641,6917.916,95.438,540.542,539.02,0.0
53404.0,STARLINK-4509,PAYLOAD,2023-05-17 23:59:22,15.08828185,6.54e-05,53.2187,43.1183,53.2828,306.8224,4.2004e-06,-2.21e-06,0.0,0 STARLINK-4509,1 53404U 22097S   23137.99956719 -.00000221  00000-0  42004-5 0  9998,2 53404  53.2187  43.1183 0000654  53.2828 306.8224 15.08828185 43162,6917.917,95.438,540.234,539.329,0.0
